[{"OBJECT_NAME":"SAPPHIRE","OBJECT_ID":"2013-009C","EPOCH":"2026-03-06T19:39:50.673600","MEAN_MOTION":14.35207645,"ECCENTRICITY":0.0011041,"INCLINATION":98.4217,"RA_OF_ASC_NODE":247.7149,"ARG_OF_PERICENTER":188.1348,"MEAN_ANOMALY":171.9661,"EPHEMERIS_TYPE":0,"CLASSIFICATION_TYPE":"U","NORAD_CAT_ID":39088,"ELEMENT_SET_NO":999,"REV_AT_EPOCH":68189,"BSTAR":0.00010607,"MEAN_MOTION_DOT":2.61e-6,"MEAN_MOTION_DDOT":0},{"OBJECT_NAME":"PRAETORIAN SDA_602","OBJECT_ID":"2025-203A","EPOCH":"2026-03-06T12:52:30.499104","MEAN_MOTION":13.84333321,"ECCENTRICITY":0.00071372,"INCLINATION":81.3005,"RA_OF_ASC_NODE":105.8613,"ARG_OF_PERICENTER":109.7019,"MEAN_ANOMALY":250.4908,"EPHEMERIS_TYPE":0,"CLASSIFICATION_TYPE":"U","NORAD_CAT_ID":65565,"ELEMENT_SET_NO":999,"REV_AT_EPOCH":2449,"BSTAR":0.00025292978,"MEAN_MOTION_DOT":2.95e-6,"MEAN_MOTION_DDOT":0},{"OBJECT_NAME":"PRAETORIAN SDA_603","OBJECT_ID":"2025-203B","EPOCH":"2026-03-06T04:03:53.558496","MEAN_MOTION":13.83902996,"ECCENTRICITY":0.00107862,"INCLINATION":81.3005,"RA_OF_ASC_NODE":106.0435,"ARG_OF_PERICENTER":110.9189,"MEAN_ANOMALY":249.3123,"EPHEMERIS_TYPE":0,"CLASSIFICATION_TYPE":"U","NORAD_CAT_ID":65566,"ELEMENT_SET_NO":999,"REV_AT_EPOCH":2445,"BSTAR":0.00023831364,"MEAN_MOTION_DOT":2.76e-6,"MEAN_MOTION_DDOT":0},{"OBJECT_NAME":"PRAETORIAN SDA_604","OBJECT_ID":"2025-203C","EPOCH":"2026-03-06T13:25:03.250560","MEAN_MOTION":13.8303388,"ECCENTRICITY":0.00067608,"INCLINATION":81.3025,"RA_OF_ASC_NODE":105.9374,"ARG_OF_PERICENTER":115.4529,"MEAN_ANOMALY":244.7327,"EPHEMERIS_TYPE":0,"CLASSIFICATION_TYPE":"U","NORAD_CAT_ID":65567,"ELEMENT_SET_NO":999,"REV_AT_EPOCH":2449,"BSTAR":5.495268e-5,"MEAN_MOTION_DOT":7.2e-7,"MEAN_MOTION_DDOT":0},{"OBJECT_NAME":"PRAETORIAN SDA_605","OBJECT_ID":"2025-203D","EPOCH":"2026-03-06T08:07:11.089056","MEAN_MOTION":13.83528375,"ECCENTRICITY":0.00095118,"INCLINATION":81.2987,"RA_OF_ASC_NODE":105.9095,"ARG_OF_PERICENTER":106.4694,"MEAN_ANOMALY":253.7508,"EPHEMERIS_TYPE":0,"CLASSIFICATION_TYPE":"U","NORAD_CAT_ID":65568,"ELEMENT_SET_NO":999,"REV_AT_EPOCH":2447,"BSTAR":5.6700167e-5,"MEAN_MOTION_DOT":7.4e-7,"MEAN_MOTION_DDOT":0},{"OBJECT_NAME":"PRAETORIAN SDA_606","OBJECT_ID":"2025-203E","EPOCH":"2026-03-06T06:02:14.277696","MEAN_MOTION":13.83531623,"ECCENTRICITY":0.00070771,"INCLINATION":81.3026,"RA_OF_ASC_NODE":106.1779,"ARG_OF_PERICENTER":107.1531,"MEAN_ANOMALY":253.04,"EPHEMERIS_TYPE":0,"CLASSIFICATION_TYPE":"U","NORAD_CAT_ID":65569,"ELEMENT_SET_NO":999,"REV_AT_EPOCH":2445,"BSTAR":0.00028109397,"MEAN_MOTION_DOT":3.22e-6,"MEAN_MOTION_DDOT":0},{"OBJECT_NAME":"PRAETORIAN SDA_607","OBJECT_ID":"2025-203F","EPOCH":"2026-03-06T05:59:08.434752","MEAN_MOTION":13.84465383,"ECCENTRICITY":0.00100917,"INCLINATION":81.3009,"RA_OF_ASC_NODE":105.9952,"ARG_OF_PERICENTER":109.8985,"MEAN_ANOMALY":250.326,"EPHEMERIS_TYPE":0,"CLASSIFICATION_TYPE":"U","NORAD_CAT_ID":65570,"ELEMENT_SET_NO":999,"REV_AT_EPOCH":2446,"BSTAR":0.00025384501,"MEAN_MOTION_DOT":2.96e-6,"MEAN_MOTION_DDOT":0},{"OBJECT_NAME":"PRAETORIAN SDA_608","OBJECT_ID":"2025-203G","EPOCH":"2026-03-06T04:34:27.281856","MEAN_MOTION":13.83886404,"ECCENTRICITY":0.00071602,"INCLINATION":81.2978,"RA_OF_ASC_NODE":106.1674,"ARG_OF_PERICENTER":115.8619,"MEAN_ANOMALY":244.3276,"EPHEMERIS_TYPE":0,"CLASSIFICATION_TYPE":"U","NORAD_CAT_ID":65571,"ELEMENT_SET_NO":999,"REV_AT_EPOCH":2444,"BSTAR":5.5683031e-5,"MEAN_MOTION_DOT":7.4e-7,"MEAN_MOTION_DDOT":0},{"OBJECT_NAME":"PRAETORIAN SDA_609","OBJECT_ID":"2025-203H","EPOCH":"2026-03-06T12:25:57.932832","MEAN_MOTION":13.84314594,"ECCENTRICITY":0.00081931,"INCLINATION":81.3023,"RA_OF_ASC_NODE":105.873,"ARG_OF_PERICENTER":109.0518,"MEAN_ANOMALY":251.1527,"EPHEMERIS_TYPE":0,"CLASSIFICATION_TYPE":"U","NORAD_CAT_ID":65572,"ELEMENT_SET_NO":999,"REV_AT_EPOCH":2449,"BSTAR":0.00023807954,"MEAN_MOTION_DOT":2.78e-6,"MEAN_MOTION_DDOT":0},{"OBJECT_NAME":"PRAETORIAN SDA_610","OBJECT_ID":"2025-203J","EPOCH":"2026-03-06T05:55:44.035680","MEAN_MOTION":13.84010751,"ECCENTRICITY":0.00077806,"INCLINATION":81.298,"RA_OF_ASC_NODE":106.0813,"ARG_OF_PERICENTER":111.141,"MEAN_ANOMALY":249.0578,"EPHEMERIS_TYPE":0,"CLASSIFICATION_TYPE":"U","NORAD_CAT_ID":65573,"ELEMENT_SET_NO":999,"REV_AT_EPOCH":2445,"BSTAR":6.5616929e-5,"MEAN_MOTION_DOT":8.5e-7,"MEAN_MOTION_DDOT":0},{"OBJECT_NAME":"PRAETORIAN SDA_611","OBJECT_ID":"2025-203K","EPOCH":"2026-03-06T08:20:41.011296","MEAN_MOTION":13.83295429,"ECCENTRICITY":0.00068352,"INCLINATION":81.2971,"RA_OF_ASC_NODE":106.0593,"ARG_OF_PERICENTER":118.675,"MEAN_ANOMALY":241.5094,"EPHEMERIS_TYPE":0,"CLASSIFICATION_TYPE":"U","NORAD_CAT_ID":65574,"ELEMENT_SET_NO":999,"REV_AT_EPOCH":2446,"BSTAR":0.00015254955,"MEAN_MOTION_DOT":1.79e-6,"MEAN_MOTION_DDOT":0},{"OBJECT_NAME":"PRAETORIAN SDA_612","OBJECT_ID":"2025-203L","EPOCH":"2026-03-06T05:58:28.776288","MEAN_MOTION":13.85045152,"ECCENTRICITY":0.00105197,"INCLINATION":81.3,"RA_OF_ASC_NODE":105.9897,"ARG_OF_PERICENTER":111.0294,"MEAN_ANOMALY":249.1989,"EPHEMERIS_TYPE":0,"CLASSIFICATION_TYPE":"U","NORAD_CAT_ID":65575,"ELEMENT_SET_NO":999,"REV_AT_EPOCH":2446,"BSTAR":0.00024752201,"MEAN_MOTION_DOT":2.92e-6,"MEAN_MOTION_DDOT":0},{"OBJECT_NAME":"PRAETORIAN SDA_613","OBJECT_ID":"2025-203M","EPOCH":"2026-03-06T13:00:10.379520","MEAN_MOTION":13.82987768,"ECCENTRICITY":0.00069987,"INCLINATION":81.297,"RA_OF_ASC_NODE":105.8198,"ARG_OF_PERICENTER":110.7862,"MEAN_ANOMALY":249.4044,"EPHEMERIS_TYPE":0,"CLASSIFICATION_TYPE":"U","NORAD_CAT_ID":65576,"ELEMENT_SET_NO":999,"REV_AT_EPOCH":2449,"BSTAR":0.00022488761,"MEAN_MOTION_DOT":2.57e-6,"MEAN_MOTION_DDOT":0},{"OBJECT_NAME":"PRAETORIAN SDA_614","OBJECT_ID":"2025-203N","EPOCH":"2026-03-06T12:11:12.115104","MEAN_MOTION":13.84765324,"ECCENTRICITY":0.00083986,"INCLINATION":81.2984,"RA_OF_ASC_NODE":105.8019,"ARG_OF_PERICENTER":108.5892,"MEAN_ANOMALY":251.6178,"EPHEMERIS_TYPE":0,"CLASSIFICATION_TYPE":"U","NORAD_CAT_ID":65577,"ELEMENT_SET_NO":999,"REV_AT_EPOCH":2450,"BSTAR":6.1191838e-5,"MEAN_MOTION_DOT":8.1e-7,"MEAN_MOTION_DDOT":0},{"OBJECT_NAME":"PRAETORIAN SDA_615","OBJECT_ID":"2025-203P","EPOCH":"2026-03-06T05:49:07.615200","MEAN_MOTION":13.8442228,"ECCENTRICITY":0.0010262,"INCLINATION":81.2996,"RA_OF_ASC_NODE":105.9469,"ARG_OF_PERICENTER":109.1811,"MEAN_ANOMALY":251.0457,"EPHEMERIS_TYPE":0,"CLASSIFICATION_TYPE":"U","NORAD_CAT_ID":65578,"ELEMENT_SET_NO":999,"REV_AT_EPOCH":2446,"BSTAR":0.00026978765,"MEAN_MOTION_DOT":3.14e-6,"MEAN_MOTION_DDOT":0},{"OBJECT_NAME":"PRAETORIAN SDA_616","OBJECT_ID":"2025-203Q","EPOCH":"2026-03-06T13:32:02.361408","MEAN_MOTION":13.83298187,"ECCENTRICITY":0.00065644,"INCLINATION":81.3034,"RA_OF_ASC_NODE":105.9428,"ARG_OF_PERICENTER":117.3925,"MEAN_ANOMALY":242.79,"EPHEMERIS_TYPE":0,"CLASSIFICATION_TYPE":"U","NORAD_CAT_ID":65579,"ELEMENT_SET_NO":999,"REV_AT_EPOCH":2449,"BSTAR":0.00025411317,"MEAN_MOTION_DOT":2.91e-6,"MEAN_MOTION_DDOT":0}]
