SAPPHIRE                
1 39088U 13009C   26065.81933650  .00000261  00000+0  10607-3 0  9990
2 39088  98.4217 247.7149 0011041 188.1348 171.9661 14.35207645681895
PRAETORIAN SDA_602      
1 65565U 25203A   26065.53646411  .00000295  00000+0  25293-3 0  9997
2 65565  81.3005 105.8613 0007137 109.7019 250.4908 13.84333321 24493
PRAETORIAN SDA_603      
1 65566U 25203B   26065.16936989  .00000276  00000+0  23831-3 0  9994
2 65566  81.3005 106.0435 0010786 110.9189 249.3123 13.83902996 24456
PRAETORIAN SDA_604      
1 65567U 25203C   26065.55906540  .00000072  00000+0  54953-4 0  9992
2 65567  81.3025 105.9374 0006760 115.4529 244.7327 13.83033880 24490
PRAETORIAN SDA_605      
1 65568U 25203D   26065.33832279  .00000074  00000+0  56700-4 0  9990
2 65568  81.2987 105.9095 0009511 106.4694 253.7508 13.83528375 24474
PRAETORIAN SDA_606      
1 65569U 25203E   26065.25155414  .00000322  00000+0  28109-3 0  9998
2 65569  81.3026 106.1779 0007077 107.1531 253.0400 13.83531623 24457
PRAETORIAN SDA_607      
1 65570U 25203F   26065.24940318  .00000296  00000+0  25385-3 0  9997
2 65570  81.3009 105.9952 0010091 109.8985 250.3260 13.84465383 24467
PRAETORIAN SDA_608      
1 65571U 25203G   26065.19059354  .00000074  00000+0  55683-4 0  9992
2 65571  81.2978 106.1674 0007160 115.8619 244.3276 13.83886404 24448
PRAETORIAN SDA_609      
1 65572U 25203H   26065.51803163  .00000278  00000+0  23808-3 0  9993
2 65572  81.3023 105.8730 0008193 109.0518 251.1527 13.84314594 24497
PRAETORIAN SDA_610      
1 65573U 25203J   26065.24703745  .00000085  00000+0  65617-4 0  9990
2 65573  81.2980 106.0813 0007780 111.1410 249.0578 13.84010751 24456
PRAETORIAN SDA_611      
1 65574U 25203K   26065.34769689  .00000179  00000+0  15255-3 0  9997
2 65574  81.2971 106.0593 0006835 118.6750 241.5094 13.83295429 24468
PRAETORIAN SDA_612      
1 65575U 25203L   26065.24894417  .00000292  00000+0  24752-3 0  9993
2 65575  81.3000 105.9897 0010519 111.0294 249.1989 13.85045152 24467
PRAETORIAN SDA_613      
1 65576U 25203M   26065.54178680  .00000257  00000+0  22489-3 0  9990
2 65576  81.2970 105.8198 0006998 110.7862 249.4044 13.82987768 24492
PRAETORIAN SDA_614      
1 65577U 25203N   26065.50777911  .00000081  00000+0  61192-4 0  9999
2 65577  81.2984 105.8019 0008398 108.5892 251.6178 13.84765324 24503
PRAETORIAN SDA_615      
1 65578U 25203P   26065.24244925  .00000314  00000+0  26979-3 0  9997
2 65578  81.2996 105.9469 0010262 109.1811 251.0457 13.84422280 24468
PRAETORIAN SDA_616      
1 65579U 25203Q   26065.56391622  .00000291  00000+0  25411-3 0  9994
2 65579  81.3034 105.9428 0006564 117.3925 242.7900 13.83298187 24494
